STARLINK-32746          
1 62745U 25014L   26068.30566504  .00035983  00000+0  13102-2 0  9993
2 62745  42.9997 156.1243 0002487 288.6677  71.3904 15.27591430 63205
TEVEL2-8                
1 63239U 25052AF  26068.66815442  .00019130  00000+0  69304-3 0  9993
2 63239  97.4055 324.2923 0008031 124.9191 235.2804 15.28392908 54807
